FLOCK 4G-33             
1 62685U 25009CE  26201.10749213  .00003290  00000+0  13144-3 0  9990
2 62685  97.3937 280.6070 0005131 195.4600 164.6482 15.25830798 83825
FLOCK 4H-1              
1 66704U 25276AQ  26201.14630912  .00003662  00000+0  16881-3 0  9995
2 66704  97.4161 274.3159 0002513 160.9056 199.2274 15.20885847 35440
FLOCK 4H-2              
1 66705U 25276AR  26201.11912236  .00003510  00000+0  16068-3 0  9994
2 66705  97.4156 274.3394 0001947 149.4224 210.7126 15.21158297 35443
FLOCK 4H-3              
1 66706U 25276AS  26201.11199846  .00003419  00000+0  16062-3 0  9991
2 66706  97.4227 274.2551 0002892 224.7775 135.3227 15.20277668 35420
FLOCK 4H-4              
1 66707U 25276AT  26201.14873985  .00003834  00000+0  18079-3 0  9999
2 66707  97.4209 274.1557 0003488 229.3993 130.6939 15.20070866 35420
FLOCK 4H-5              
1 66708U 25276AU  26201.13840491  .00003545  00000+0  16330-3 0  9992
2 66708  97.4158 274.3297 0001617 136.0637 224.0728 15.20937409 35449
FLOCK 4H-6              
1 66709U 25276AV  26201.18534479  .00003381  00000+0  15725-3 0  9999
2 66709  97.4211 274.4205 0003014 186.2245 173.8954 15.20638813 35444
FLOCK 4H-7              
1 66710U 25276AW  26200.77298361  .00003289  00000+0  15406-3 0  9995
2 66710  97.4170 273.7678 0000697 245.8647 114.2515 15.20412016 35377
FLOCK 4H-8              
1 66711U 25276AX  26201.15840559  .00003797  00000+0  17677-3 0  9997
2 66711  97.4208 274.3002 0002106 238.6612 121.4418 15.20523402 35438
FLOCK 4H-9              
1 66712U 25276AY  26201.10543397  .00003797  00000+0  17522-3 0  9992
2 66712  97.4200 274.3441 0002957 193.2712 166.8447 15.20825223 35430
FLOCK 4H-10             
1 66713U 25276AZ  26201.13239900  .00003518  00000+0  16555-3 0  9994
2 66713  97.4175 274.0741 0003305 229.7817 130.3129 15.20198582 35424
FLOCK 4H-11             
1 66714U 25276BA  26201.14716994  .00007879  00000+0  33397-3 0  9996
2 66714  97.4180 274.7059 0001903 217.1232 142.9874 15.23402171 35469
FLOCK 4H-12             
1 66715U 25276BB  26201.15819209  .00004013  00000+0  18488-3 0  9992
2 66715  97.4172 274.3305 0002414 167.8011 192.3284 15.20852581 35752
FLOCK 4H-13             
1 66716U 25276BC  26201.12847003  .00003511  00000+0  16167-3 0  9997
2 66716  97.4206 274.4777 0002216 136.8563 223.2847 15.20953435 35448
FLOCK 4H-14             
1 66717U 25276BD  26201.15324554  .00003893  00000+0  17660-3 0  9994
2 66717  97.4188 274.5510 0002145 137.1968 222.9435 15.21401763 34708
FLOCK 4H-15             
1 66718U 25276BE  26200.77226559  .00003194  00000+0  15184-3 0  9991
2 66718  97.4203 273.7247 0002799 248.6956 111.3980 15.19914102 35367
