{"fetched_at":"2026-07-20T18:28:56.744Z","source":"https://celestrak.org/NORAD/elements/gp.php?GROUP=planet&FORMAT=JSON","constellation":"superdove","records":[{"OBJECT_NAME":"FLOCK 4G-33","OBJECT_ID":"2025-009CE","EPOCH":"2026-07-20T02:34:47.320032","CLASSIFICATION_TYPE":"U","MEAN_MOTION":15.25830798,"ECCENTRICITY":0.00051311,"INCLINATION":97.3937,"RA_OF_ASC_NODE":280.607,"ARG_OF_PERICENTER":195.46,"MEAN_ANOMALY":164.6482,"EPHEMERIS_TYPE":0,"NORAD_CAT_ID":62685,"ELEMENT_SET_NO":999,"REV_AT_EPOCH":8382,"BSTAR":0.00013144168,"MEAN_MOTION_DOT":0.0000329,"MEAN_MOTION_DDOT":0},{"OBJECT_NAME":"FLOCK 4H-1","OBJECT_ID":"2025-276AQ","EPOCH":"2026-07-20T03:30:41.107968","CLASSIFICATION_TYPE":"U","MEAN_MOTION":15.20885847,"ECCENTRICITY":0.00025138,"INCLINATION":97.4161,"RA_OF_ASC_NODE":274.3159,"ARG_OF_PERICENTER":160.9056,"MEAN_ANOMALY":199.2274,"EPHEMERIS_TYPE":0,"NORAD_CAT_ID":66704,"ELEMENT_SET_NO":999,"REV_AT_EPOCH":3544,"BSTAR":0.00016881073,"MEAN_MOTION_DOT":0.00003662,"MEAN_MOTION_DDOT":0},{"OBJECT_NAME":"FLOCK 4H-2","OBJECT_ID":"2025-276AR","EPOCH":"2026-07-20T02:51:32.171904","CLASSIFICATION_TYPE":"U","MEAN_MOTION":15.21158297,"ECCENTRICITY":0.00019471,"INCLINATION":97.4156,"RA_OF_ASC_NODE":274.3394,"ARG_OF_PERICENTER":149.4224,"MEAN_ANOMALY":210.7126,"EPHEMERIS_TYPE":0,"NORAD_CAT_ID":66705,"ELEMENT_SET_NO":999,"REV_AT_EPOCH":3544,"BSTAR":0.00016068071,"MEAN_MOTION_DOT":0.0000351,"MEAN_MOTION_DDOT":0},{"OBJECT_NAME":"FLOCK 4H-3","OBJECT_ID":"2025-276AS","EPOCH":"2026-07-20T02:41:16.666944","CLASSIFICATION_TYPE":"U","MEAN_MOTION":15.20277668,"ECCENTRICITY":0.00028929,"INCLINATION":97.4227,"RA_OF_ASC_NODE":274.2551,"ARG_OF_PERICENTER":224.7775,"MEAN_ANOMALY":135.3227,"EPHEMERIS_TYPE":0,"NORAD_CAT_ID":66706,"ELEMENT_SET_NO":999,"REV_AT_EPOCH":3542,"BSTAR":0.00016062105,"MEAN_MOTION_DOT":0.00003419,"MEAN_MOTION_DDOT":0},{"OBJECT_NAME":"FLOCK 4H-4","OBJECT_ID":"2025-276AT","EPOCH":"2026-07-20T03:34:11.123040","CLASSIFICATION_TYPE":"U","MEAN_MOTION":15.20070866,"ECCENTRICITY":0.00034881,"INCLINATION":97.4209,"RA_OF_ASC_NODE":274.1557,"ARG_OF_PERICENTER":229.3993,"MEAN_ANOMALY":130.6939,"EPHEMERIS_TYPE":0,"NORAD_CAT_ID":66707,"ELEMENT_SET_NO":999,"REV_AT_EPOCH":3542,"BSTAR":0.00018079087,"MEAN_MOTION_DOT":0.00003834,"MEAN_MOTION_DDOT":0},{"OBJECT_NAME":"FLOCK 4H-5","OBJECT_ID":"2025-276AU","EPOCH":"2026-07-20T03:19:18.184224","CLASSIFICATION_TYPE":"U","MEAN_MOTION":15.20937409,"ECCENTRICITY":0.00016175,"INCLINATION":97.4158,"RA_OF_ASC_NODE":274.3297,"ARG_OF_PERICENTER":136.0637,"MEAN_ANOMALY":224.0728,"EPHEMERIS_TYPE":0,"NORAD_CAT_ID":66708,"ELEMENT_SET_NO":999,"REV_AT_EPOCH":3544,"BSTAR":0.00016329821,"MEAN_MOTION_DOT":0.00003545,"MEAN_MOTION_DDOT":0},{"OBJECT_NAME":"FLOCK 4H-6","OBJECT_ID":"2025-276AV","EPOCH":"2026-07-20T04:26:53.789856","CLASSIFICATION_TYPE":"U","MEAN_MOTION":15.20638813,"ECCENTRICITY":0.00030143,"INCLINATION":97.4211,"RA_OF_ASC_NODE":274.4205,"ARG_OF_PERICENTER":186.2245,"MEAN_ANOMALY":173.8954,"EPHEMERIS_TYPE":0,"NORAD_CAT_ID":66709,"ELEMENT_SET_NO":999,"REV_AT_EPOCH":3544,"BSTAR":0.00015724786,"MEAN_MOTION_DOT":0.00003381,"MEAN_MOTION_DDOT":0},{"OBJECT_NAME":"FLOCK 4H-7","OBJECT_ID":"2025-276AW","EPOCH":"2026-07-19T18:33:05.783904","CLASSIFICATION_TYPE":"U","MEAN_MOTION":15.20412016,"ECCENTRICITY":0.00006972,"INCLINATION":97.417,"RA_OF_ASC_NODE":273.7678,"ARG_OF_PERICENTER":245.8647,"MEAN_ANOMALY":114.2515,"EPHEMERIS_TYPE":0,"NORAD_CAT_ID":66710,"ELEMENT_SET_NO":999,"REV_AT_EPOCH":3537,"BSTAR":0.00015405661,"MEAN_MOTION_DOT":0.00003289,"MEAN_MOTION_DDOT":0},{"OBJECT_NAME":"FLOCK 4H-8","OBJECT_ID":"2025-276AX","EPOCH":"2026-07-20T03:48:06.242976","CLASSIFICATION_TYPE":"U","MEAN_MOTION":15.20523402,"ECCENTRICITY":0.00021069,"INCLINATION":97.4208,"RA_OF_ASC_NODE":274.3002,"ARG_OF_PERICENTER":238.6612,"MEAN_ANOMALY":121.4418,"EPHEMERIS_TYPE":0,"NORAD_CAT_ID":66711,"ELEMENT_SET_NO":999,"REV_AT_EPOCH":3543,"BSTAR":0.00017677185,"MEAN_MOTION_DOT":0.00003797,"MEAN_MOTION_DDOT":0},{"OBJECT_NAME":"FLOCK 4H-9","OBJECT_ID":"2025-276AY","EPOCH":"2026-07-20T02:31:49.495008","CLASSIFICATION_TYPE":"U","MEAN_MOTION":15.20825223,"ECCENTRICITY":0.00029578,"INCLINATION":97.42,"RA_OF_ASC_NODE":274.3441,"ARG_OF_PERICENTER":193.2712,"MEAN_ANOMALY":166.8447,"EPHEMERIS_TYPE":0,"NORAD_CAT_ID":66712,"ELEMENT_SET_NO":999,"REV_AT_EPOCH":3543,"BSTAR":0.00017522182,"MEAN_MOTION_DOT":0.00003797,"MEAN_MOTION_DDOT":0},{"OBJECT_NAME":"FLOCK 4H-10","OBJECT_ID":"2025-276AZ","EPOCH":"2026-07-20T03:10:39.273600","CLASSIFICATION_TYPE":"U","MEAN_MOTION":15.20198582,"ECCENTRICITY":0.00033051,"INCLINATION":97.4175,"RA_OF_ASC_NODE":274.0741,"ARG_OF_PERICENTER":229.7817,"MEAN_ANOMALY":130.3129,"EPHEMERIS_TYPE":0,"NORAD_CAT_ID":66713,"ELEMENT_SET_NO":999,"REV_AT_EPOCH":3542,"BSTAR":0.00016555209,"MEAN_MOTION_DOT":0.00003518,"MEAN_MOTION_DDOT":0},{"OBJECT_NAME":"FLOCK 4H-11","OBJECT_ID":"2025-276BA","EPOCH":"2026-07-20T03:31:55.482816","CLASSIFICATION_TYPE":"U","MEAN_MOTION":15.23402171,"ECCENTRICITY":0.00019033,"INCLINATION":97.418,"RA_OF_ASC_NODE":274.7059,"ARG_OF_PERICENTER":217.1232,"MEAN_ANOMALY":142.9874,"EPHEMERIS_TYPE":0,"NORAD_CAT_ID":66714,"ELEMENT_SET_NO":999,"REV_AT_EPOCH":3546,"BSTAR":0.00033396612,"MEAN_MOTION_DOT":0.00007879,"MEAN_MOTION_DDOT":0},{"OBJECT_NAME":"FLOCK 4H-12","OBJECT_ID":"2025-276BB","EPOCH":"2026-07-20T03:47:47.796576","CLASSIFICATION_TYPE":"U","MEAN_MOTION":15.20852581,"ECCENTRICITY":0.00024147,"INCLINATION":97.4172,"RA_OF_ASC_NODE":274.3305,"ARG_OF_PERICENTER":167.8011,"MEAN_ANOMALY":192.3284,"EPHEMERIS_TYPE":0,"NORAD_CAT_ID":66715,"ELEMENT_SET_NO":999,"REV_AT_EPOCH":3575,"BSTAR":0.00018488195,"MEAN_MOTION_DOT":0.00004013,"MEAN_MOTION_DDOT":0},{"OBJECT_NAME":"FLOCK 4H-13","OBJECT_ID":"2025-276BC","EPOCH":"2026-07-20T03:04:59.810592","CLASSIFICATION_TYPE":"U","MEAN_MOTION":15.20953435,"ECCENTRICITY":0.00022168,"INCLINATION":97.4206,"RA_OF_ASC_NODE":274.4777,"ARG_OF_PERICENTER":136.8563,"MEAN_ANOMALY":223.2847,"EPHEMERIS_TYPE":0,"NORAD_CAT_ID":66716,"ELEMENT_SET_NO":999,"REV_AT_EPOCH":3544,"BSTAR":0.00016167021,"MEAN_MOTION_DOT":0.00003511,"MEAN_MOTION_DDOT":0},{"OBJECT_NAME":"FLOCK 4H-14","OBJECT_ID":"2025-276BD","EPOCH":"2026-07-20T03:40:40.414656","CLASSIFICATION_TYPE":"U","MEAN_MOTION":15.21401763,"ECCENTRICITY":0.00021453,"INCLINATION":97.4188,"RA_OF_ASC_NODE":274.551,"ARG_OF_PERICENTER":137.1968,"MEAN_ANOMALY":222.9435,"EPHEMERIS_TYPE":0,"NORAD_CAT_ID":66717,"ELEMENT_SET_NO":999,"REV_AT_EPOCH":3470,"BSTAR":0.00017660226,"MEAN_MOTION_DOT":0.00003893,"MEAN_MOTION_DDOT":0},{"OBJECT_NAME":"FLOCK 4H-15","OBJECT_ID":"2025-276BE","EPOCH":"2026-07-19T18:32:03.746976","CLASSIFICATION_TYPE":"U","MEAN_MOTION":15.19914102,"ECCENTRICITY":0.00027995,"INCLINATION":97.4203,"RA_OF_ASC_NODE":273.7247,"ARG_OF_PERICENTER":248.6956,"MEAN_ANOMALY":111.398,"EPHEMERIS_TYPE":0,"NORAD_CAT_ID":66718,"ELEMENT_SET_NO":999,"REV_AT_EPOCH":3536,"BSTAR":0.00015184487,"MEAN_MOTION_DOT":0.00003194,"MEAN_MOTION_DDOT":0}]}
